STARLINK-36910          
1 68005U 26039V   26076.25002315 -.01894596  00000+0 -16554-1 0  9993
2 68005  42.9998   8.5431 0001485 267.4423  72.7524 15.70937217  4091
STARLINK-36889          
1 68006U 26039W   26076.25002315 -.01871269  00000+0 -20321-1 0  9993
2 68006  43.0000   8.6748 0001498 261.7060  24.9751 15.65662937  4097
STARLINK-36592          
1 68007U 26039X   26076.25002315 -.01887038  00000+0 -17112-1 0  9999
2 68007  43.0002   8.5322 0001553 267.2706  76.9817 15.70047273  4093
STARLINK-36911          
1 68008U 26039Y   26076.25002315 -.01863546  00000+0 -17974-1 0  9994
2 68008  42.9999   8.5626 0001585 264.3521  67.7566 15.68536533  4090
STARLINK-36956          
1 68009U 26039Z   26076.25002315 -.01869237  00000+0 -18914-1 0  9993
2 68009  43.0001   8.5855 0001489 261.0079  61.4690 15.67388715  4091
STARLINK-36953          
1 68010U 26039AA  26076.25002315 -.01863088  00000+0 -14033-1 0  9991
2 68010  43.0003   8.3909 0001532 267.9329 132.7200 15.74829569  4099
STARLINK-36991          
1 68011U 26039AB  26076.25002315 -.01841525  00000+0 -28261-1 0  9992
2 68011  42.9999   9.0054 0001138 275.0841 238.4092 15.56768310  4091
STARLINK-36936          
1 68012U 26039AC  26076.25002315 -.01853627  00000+0 -18912-1 0  9991
2 68012  43.0002   8.5382 0001621 264.7140  76.3575 15.67159999  4095
STARLINK-36967          
1 68013U 26039AD  26076.25002315 -.01839783  00000+0 -26752-1 0  9990
2 68013  43.0000   8.9528 0001191 269.7164 265.1862 15.58186600  4099
STARLINK-36985          
1 68014U 26039AE  26076.25002315 -.01864353  00000+0 -13743-1 0  9998
2 68014  43.0002   8.3622 0001473 271.6747 140.4406 15.75320244  4095
STARLINK-36335          
1 68015U 26040A   26076.25002315 -.01274192  00000+0 -58459-2 0  9991
2 68015  97.2705  25.0315 0001262 109.1685 228.8400 15.86151713  3598
STARLINK-36923          
1 68016U 26040B   26076.25002315 -.01286708  00000+0 -59057-2 0  9993
2 68016  97.2706  25.0360 0001198  93.1028 253.7277 15.86170196  3642
STARLINK-36568          
1 68017U 26040C   26076.25002315 -.01300939  00000+0 -59708-2 0  9990
2 68017  97.2704  25.0375 0001263 103.8830 247.2342 15.86199671  3640
STARLINK-36930          
1 68018U 26040D   26076.25002315 -.01282238  00000+0 -58842-2 0  9990
2 68018  97.2702  25.0336 0001332 109.8819 232.5288 15.86162677  3648
STARLINK-36921          
1 68019U 26040E   26076.25002315 -.01347113  00000+0 -61818-2 0  9992
2 68019  97.2711  25.0420 0001384 109.3965 250.0210 15.86298327  3649
STARLINK-36928          
1 68020U 26040F   26076.25002315 -.01311168  00000+0 -60041-2 0  9992
2 68020  97.2703  25.0386 0001239  97.5945 257.4746 15.86267893  3647
